[{"OBJECT_NAME":"STARLINK-5050","OBJECT_ID":"2022-119E","EPOCH":"2025-08-28T18:25:09.260256","MEAN_MOTION":15.08829829,"ECCENTRICITY":0.00012902,"INCLINATION":53.218,"RA_OF_ASC_NODE":74.9684,"ARG_OF_PERICENTER":102.8426,"MEAN_ANOMALY":257.271,"EPHEMERIS_TYPE":0,"CLASSIFICATION_TYPE":"U","NORAD_CAT_ID":53890,"ELEMENT_SET_NO":999,"REV_AT_EPOCH":16305,"BSTAR":0.00019020161,"MEAN_MOTION_DOT":2.74e-5,"MEAN_MOTION_DDOT":0},{"OBJECT_NAME":"STARLINK-5041","OBJECT_ID":"2022-119F","EPOCH":"2025-08-28T22:21:39.733632","MEAN_MOTION":15.08836041,"ECCENTRICITY":0.00013173,"INCLINATION":53.2174,"RA_OF_ASC_NODE":109.5156,"ARG_OF_PERICENTER":86.7212,"MEAN_ANOMALY":273.3931,"EPHEMERIS_TYPE":0,"CLASSIFICATION_TYPE":"U","NORAD_CAT_ID":53891,"ELEMENT_SET_NO":999,"REV_AT_EPOCH":16258,"BSTAR":-3.5480335e-5,"MEAN_MOTION_DOT":-8.52e-6,"MEAN_MOTION_DDOT":0},{"OBJECT_NAME":"STARLINK-5046","OBJECT_ID":"2022-119G","EPOCH":"2025-08-28T21:55:07.345344","MEAN_MOTION":15.0884175,"ECCENTRICITY":0.00014644,"INCLINATION":53.2179,"RA_OF_ASC_NODE":109.4033,"ARG_OF_PERICENTER":96.3462,"MEAN_ANOMALY":263.7697,"EPHEMERIS_TYPE":0,"CLASSIFICATION_TYPE":"U","NORAD_CAT_ID":53892,"ELEMENT_SET_NO":999,"REV_AT_EPOCH":16258,"BSTAR":2.6931163e-5,"MEAN_MOTION_DOT":1.41e-6,"MEAN_MOTION_DDOT":0},{"OBJECT_NAME":"STARLINK-5052","OBJECT_ID":"2022-119H","EPOCH":"2025-08-28T22:12:26.169696","MEAN_MOTION":15.08824826,"ECCENTRICITY":0.00012278,"INCLINATION":53.2172,"RA_OF_ASC_NODE":109.4778,"ARG_OF_PERICENTER":102.1672,"MEAN_ANOMALY":257.9458,"EPHEMERIS_TYPE":0,"CLASSIFICATION_TYPE":"U","NORAD_CAT_ID":53893,"ELEMENT_SET_NO":999,"REV_AT_EPOCH":16258,"BSTAR":-0.00021620761,"MEAN_MOTION_DOT":-3.726e-5,"MEAN_MOTION_DDOT":0},{"OBJECT_NAME":"STARLINK-5043","OBJECT_ID":"2022-119J","EPOCH":"2025-08-28T22:16:20.717184","MEAN_MOTION":15.08843309,"ECCENTRICITY":0.00012845,"INCLINATION":53.2174,"RA_OF_ASC_NODE":109.4974,"ARG_OF_PERICENTER":90.6936,"MEAN_ANOMALY":269.4203,"EPHEMERIS_TYPE":0,"CLASSIFICATION_TYPE":"U","NORAD_CAT_ID":53894,"ELEMENT_SET_NO":999,"REV_AT_EPOCH":16258,"BSTAR":-1.662602e-6,"MEAN_MOTION_DOT":-3.14e-6,"MEAN_MOTION_DDOT":0},{"OBJECT_NAME":"STARLINK-5032","OBJECT_ID":"2022-119K","EPOCH":"2025-08-28T22:00:25.742304","MEAN_MOTION":15.08841041,"ECCENTRICITY":0.00013895,"INCLINATION":53.2174,"RA_OF_ASC_NODE":109.4281,"ARG_OF_PERICENTER":90.2192,"MEAN_ANOMALY":269.8959,"EPHEMERIS_TYPE":0,"CLASSIFICATION_TYPE":"U","NORAD_CAT_ID":53895,"ELEMENT_SET_NO":999,"REV_AT_EPOCH":16258,"BSTAR":2.9316213e-5,"MEAN_MOTION_DOT":1.79e-6,"MEAN_MOTION_DDOT":0},{"OBJECT_NAME":"STARLINK-5037","OBJECT_ID":"2022-119L","EPOCH":"2025-08-28T21:49:49.189440","MEAN_MOTION":15.08839563,"ECCENTRICITY":0.00013704,"INCLINATION":53.2175,"RA_OF_ASC_NODE":109.3816,"ARG_OF_PERICENTER":98.2261,"MEAN_ANOMALY":261.8887,"EPHEMERIS_TYPE":0,"CLASSIFICATION_TYPE":"U","NORAD_CAT_ID":53896,"ELEMENT_SET_NO":999,"REV_AT_EPOCH":16258,"BSTAR":-1.664385e-5,"MEAN_MOTION_DOT":-5.53e-6,"MEAN_MOTION_DDOT":0},{"OBJECT_NAME":"STARLINK-5035","OBJECT_ID":"2022-119M","EPOCH":"2025-08-28T22:11:03.088320","MEAN_MOTION":15.08838386,"ECCENTRICITY":0.000138,"INCLINATION":53.2179,"RA_OF_ASC_NODE":109.4728,"ARG_OF_PERICENTER":100.7364,"MEAN_ANOMALY":259.3783,"EPHEMERIS_TYPE":0,"CLASSIFICATION_TYPE":"U","NORAD_CAT_ID":53897,"ELEMENT_SET_NO":999,"REV_AT_EPOCH":16258,"BSTAR":-4.5060361e-5,"MEAN_MOTION_DOT":-1.005e-5,"MEAN_MOTION_DDOT":0},{"OBJECT_NAME":"STARLINK-5044","OBJECT_ID":"2022-119N","EPOCH":"2025-08-28T21:33:54.748512","MEAN_MOTION":15.08847804,"ECCENTRICITY":0.00013948,"INCLINATION":53.2173,"RA_OF_ASC_NODE":109.3154,"ARG_OF_PERICENTER":112.8971,"MEAN_ANOMALY":247.2168,"EPHEMERIS_TYPE":0,"CLASSIFICATION_TYPE":"U","NORAD_CAT_ID":53898,"ELEMENT_SET_NO":999,"REV_AT_EPOCH":16258,"BSTAR":4.6297374e-5,"MEAN_MOTION_DOT":4.49e-6,"MEAN_MOTION_DDOT":0},{"OBJECT_NAME":"STARLINK-5042","OBJECT_ID":"2022-119P","EPOCH":"2025-08-28T21:39:12.473280","MEAN_MOTION":15.08841554,"ECCENTRICITY":0.00012484,"INCLINATION":53.2167,"RA_OF_ASC_NODE":109.3368,"ARG_OF_PERICENTER":90.3784,"MEAN_ANOMALY":269.7352,"EPHEMERIS_TYPE":0,"CLASSIFICATION_TYPE":"U","NORAD_CAT_ID":53899,"ELEMENT_SET_NO":999,"REV_AT_EPOCH":16258,"BSTAR":8.425413e-6,"MEAN_MOTION_DOT":-1.54e-6,"MEAN_MOTION_DDOT":0},{"OBJECT_NAME":"STARLINK-5045","OBJECT_ID":"2022-119Q","EPOCH":"2025-08-28T21:23:17.696256","MEAN_MOTION":15.08846584,"ECCENTRICITY":0.00013037,"INCLINATION":53.2165,"RA_OF_ASC_NODE":109.2685,"ARG_OF_PERICENTER":88.0295,"MEAN_ANOMALY":272.0846,"EPHEMERIS_TYPE":0,"CLASSIFICATION_TYPE":"U","NORAD_CAT_ID":53900,"ELEMENT_SET_NO":999,"REV_AT_EPOCH":16258,"BSTAR":-5.4309956e-5,"MEAN_MOTION_DOT":-1.152e-5,"MEAN_MOTION_DDOT":0},{"OBJECT_NAME":"STARLINK-5024","OBJECT_ID":"2022-119R","EPOCH":"2025-08-28T21:45:52.194240","MEAN_MOTION":15.31411483,"ECCENTRICITY":0.00016026,"INCLINATION":53.215,"RA_OF_ASC_NODE":105.176,"ARG_OF_PERICENTER":89.4431,"MEAN_ANOMALY":270.6755,"EPHEMERIS_TYPE":0,"CLASSIFICATION_TYPE":"U","NORAD_CAT_ID":53901,"ELEMENT_SET_NO":999,"REV_AT_EPOCH":16264,"BSTAR":0.00046685938,"MEAN_MOTION_DOT":0.0001402,"MEAN_MOTION_DDOT":0},{"OBJECT_NAME":"STARLINK-5021","OBJECT_ID":"2022-119S","EPOCH":"2025-08-28T19:49:15.130848","MEAN_MOTION":15.08841359,"ECCENTRICITY":0.00012469,"INCLINATION":53.2174,"RA_OF_ASC_NODE":59.6724,"ARG_OF_PERICENTER":84.1229,"MEAN_ANOMALY":275.9905,"EPHEMERIS_TYPE":0,"CLASSIFICATION_TYPE":"U","NORAD_CAT_ID":53902,"ELEMENT_SET_NO":999,"REV_AT_EPOCH":16327,"BSTAR":7.2043314e-5,"MEAN_MOTION_DOT":8.59e-6,"MEAN_MOTION_DDOT":0},{"OBJECT_NAME":"STARLINK-5022","OBJECT_ID":"2022-119T","EPOCH":"2025-08-28T21:45:53.794368","MEAN_MOTION":15.08837345,"ECCENTRICITY":0.00014009,"INCLINATION":53.2171,"RA_OF_ASC_NODE":109.3619,"ARG_OF_PERICENTER":95.7788,"MEAN_ANOMALY":264.3364,"EPHEMERIS_TYPE":0,"CLASSIFICATION_TYPE":"U","NORAD_CAT_ID":53903,"ELEMENT_SET_NO":999,"REV_AT_EPOCH":16258,"BSTAR":-8.15857e-6,"MEAN_MOTION_DOT":-4.18e-6,"MEAN_MOTION_DDOT":0},{"OBJECT_NAME":"STARLINK-4787","OBJECT_ID":"2022-119U","EPOCH":"2025-08-28T21:17:58.561440","MEAN_MOTION":15.08814873,"ECCENTRICITY":8.469e-5,"INCLINATION":53.2172,"RA_OF_ASC_NODE":109.2457,"ARG_OF_PERICENTER":84.6368,"MEAN_ANOMALY":275.4721,"EPHEMERIS_TYPE":0,"CLASSIFICATION_TYPE":"U","NORAD_CAT_ID":53904,"ELEMENT_SET_NO":999,"REV_AT_EPOCH":16258,"BSTAR":0.00012534295,"MEAN_MOTION_DOT":1.706e-5,"MEAN_MOTION_DDOT":0},{"OBJECT_NAME":"STARLINK-5003","OBJECT_ID":"2022-119V","EPOCH":"2025-08-28T21:03:31.567680","MEAN_MOTION":15.08840646,"ECCENTRICITY":0.00013827,"INCLINATION":53.2165,"RA_OF_ASC_NODE":99.9118,"ARG_OF_PERICENTER":90.073,"MEAN_ANOMALY":270.0421,"EPHEMERIS_TYPE":0,"CLASSIFICATION_TYPE":"U","NORAD_CAT_ID":53905,"ELEMENT_SET_NO":999,"REV_AT_EPOCH":16271,"BSTAR":-4.0743469e-5,"MEAN_MOTION_DOT":-9.36e-6,"MEAN_MOTION_DDOT":0},{"OBJECT_NAME":"STARLINK-5054","OBJECT_ID":"2022-119W","EPOCH":"2025-08-28T21:29:53.917152","MEAN_MOTION":15.08860397,"ECCENTRICITY":0.0001401,"INCLINATION":53.2176,"RA_OF_ASC_NODE":99.3239,"ARG_OF_PERICENTER":90.382,"MEAN_ANOMALY":269.7333,"EPHEMERIS_TYPE":0,"CLASSIFICATION_TYPE":"U","NORAD_CAT_ID":53906,"ELEMENT_SET_NO":999,"REV_AT_EPOCH":16272,"BSTAR":0.00017683212,"MEAN_MOTION_DOT":2.529e-5,"MEAN_MOTION_DDOT":0},{"OBJECT_NAME":"STARLINK-5057","OBJECT_ID":"2022-119Y","EPOCH":"2025-08-28T22:28:17.811264","MEAN_MOTION":15.08840421,"ECCENTRICITY":0.00014255,"INCLINATION":53.2173,"RA_OF_ASC_NODE":99.5674,"ARG_OF_PERICENTER":85.4781,"MEAN_ANOMALY":274.6374,"EPHEMERIS_TYPE":0,"CLASSIFICATION_TYPE":"U","NORAD_CAT_ID":53908,"ELEMENT_SET_NO":999,"REV_AT_EPOCH":16272,"BSTAR":3.670766e-6,"MEAN_MOTION_DOT":-2.3e-6,"MEAN_MOTION_DDOT":0},{"OBJECT_NAME":"STARLINK-4796","OBJECT_ID":"2022-119Z","EPOCH":"2025-08-28T21:08:49.799616","MEAN_MOTION":15.08834506,"ECCENTRICITY":0.00012977,"INCLINATION":53.2172,"RA_OF_ASC_NODE":99.9302,"ARG_OF_PERICENTER":101.3014,"MEAN_ANOMALY":258.8124,"EPHEMERIS_TYPE":0,"CLASSIFICATION_TYPE":"U","NORAD_CAT_ID":53909,"ELEMENT_SET_NO":999,"REV_AT_EPOCH":16271,"BSTAR":-9.8402633e-5,"MEAN_MOTION_DOT":-1.853e-5,"MEAN_MOTION_DDOT":0},{"OBJECT_NAME":"STARLINK-5056","OBJECT_ID":"2022-119AA","EPOCH":"2025-08-28T17:20:55.298400","MEAN_MOTION":15.41896858,"ECCENTRICITY":0.00020305,"INCLINATION":53.2028,"RA_OF_ASC_NODE":39.729,"ARG_OF_PERICENTER":121.4792,"MEAN_ANOMALY":238.6413,"EPHEMERIS_TYPE":0,"CLASSIFICATION_TYPE":"U","NORAD_CAT_ID":53910,"ELEMENT_SET_NO":999,"REV_AT_EPOCH":16355,"BSTAR":0.00054949104,"MEAN_MOTION_DOT":0.00023364,"MEAN_MOTION_DDOT":0},{"OBJECT_NAME":"STARLINK-5048","OBJECT_ID":"2022-119AB","EPOCH":"2025-08-28T20:58:12.704160","MEAN_MOTION":15.08843757,"ECCENTRICITY":0.00015331,"INCLINATION":53.2186,"RA_OF_ASC_NODE":99.8857,"ARG_OF_PERICENTER":96.6368,"MEAN_ANOMALY":263.4799,"EPHEMERIS_TYPE":0,"CLASSIFICATION_TYPE":"U","NORAD_CAT_ID":53911,"ELEMENT_SET_NO":999,"REV_AT_EPOCH":16271,"BSTAR":9.443049e-6,"MEAN_MOTION_DOT":-1.38e-6,"MEAN_MOTION_DDOT":0},{"OBJECT_NAME":"STARLINK-5059","OBJECT_ID":"2022-119AC","EPOCH":"2025-08-28T21:19:19.067232","MEAN_MOTION":15.08848067,"ECCENTRICITY":0.00012405,"INCLINATION":53.2168,"RA_OF_ASC_NODE":99.2781,"ARG_OF_PERICENTER":92.9104,"MEAN_ANOMALY":267.203,"EPHEMERIS_TYPE":0,"CLASSIFICATION_TYPE":"U","NORAD_CAT_ID":53912,"ELEMENT_SET_NO":999,"REV_AT_EPOCH":16272,"BSTAR":-6.5162107e-5,"MEAN_MOTION_DOT":-1.325e-5,"MEAN_MOTION_DDOT":0},{"OBJECT_NAME":"STARLINK-5053","OBJECT_ID":"2022-119AD","EPOCH":"2025-08-28T22:07:04.855872","MEAN_MOTION":15.0884434,"ECCENTRICITY":0.00014242,"INCLINATION":53.2155,"RA_OF_ASC_NODE":99.4753,"ARG_OF_PERICENTER":84.8299,"MEAN_ANOMALY":275.2856,"EPHEMERIS_TYPE":0,"CLASSIFICATION_TYPE":"U","NORAD_CAT_ID":53913,"ELEMENT_SET_NO":999,"REV_AT_EPOCH":16272,"BSTAR":-4.2868101e-5,"MEAN_MOTION_DOT":-9.7e-6,"MEAN_MOTION_DDOT":0}]
